{
  "type": "FeatureCollection",
  "features": [
    {
      "type": "Feature",
      "properties": {
        "ward_name": "Maninagar",
        "city_name": "Ahmedabad",
        "ward_id": 1
      },
      "geometry": {
        "type": "Polygon",
        "coordinates": [
          [
            [
              72.5514,
              23.0025
            ],
            [
              72.5614,
              23.0025
            ],
            [
              72.5614,
              23.012500000000003
            ],
            [
              72.5514,
              23.012500000000003
            ],
            [
              72.5514,
              23.0025
            ]
          ]
        ]
      }
    },
    {
      "type": "Feature",
      "properties": {
        "ward_name": "Bopal",
        "city_name": "Ahmedabad",
        "ward_id": 2
      },
      "geometry": {
        "type": "Polygon",
        "coordinates": [
          [
            [
              72.56139999999999,
              23.0025
            ],
            [
              72.5714,
              23.0025
            ],
            [
              72.5714,
              23.012500000000003
            ],
            [
              72.56139999999999,
              23.012500000000003
            ],
            [
              72.56139999999999,
              23.0025
            ]
          ]
        ]
      }
    },
    {
      "type": "Feature",
      "properties": {
        "ward_name": "Naroda",
        "city_name": "Ahmedabad",
        "ward_id": 3
      },
      "geometry": {
        "type": "Polygon",
        "coordinates": [
          [
            [
              72.5714,
              23.0025
            ],
            [
              72.5814,
              23.0025
            ],
            [
              72.5814,
              23.012500000000003
            ],
            [
              72.5714,
              23.012500000000003
            ],
            [
              72.5714,
              23.0025
            ]
          ]
        ]
      }
    },
    {
      "type": "Feature",
      "properties": {
        "ward_name": "Satellite",
        "city_name": "Ahmedabad",
        "ward_id": 4
      },
      "geometry": {
        "type": "Polygon",
        "coordinates": [
          [
            [
              72.5814,
              23.0025
            ],
            [
              72.59140000000001,
              23.0025
            ],
            [
              72.59140000000001,
              23.012500000000003
            ],
            [
              72.5814,
              23.012500000000003
            ],
            [
              72.5814,
              23.0025
            ]
          ]
        ]
      }
    },
    {
      "type": "Feature",
      "properties": {
        "ward_name": "APMC",
        "city_name": "Ahmedabad",
        "ward_id": 5
      },
      "geometry": {
        "type": "Polygon",
        "coordinates": [
          [
            [
              72.5914,
              23.0025
            ],
            [
              72.6014,
              23.0025
            ],
            [
              72.6014,
              23.012500000000003
            ],
            [
              72.5914,
              23.012500000000003
            ],
            [
              72.5914,
              23.0025
            ]
          ]
        ]
      }
    },
    {
      "type": "Feature",
      "properties": {
        "ward_name": "Thaltej",
        "city_name": "Ahmedabad",
        "ward_id": 6
      },
      "geometry": {
        "type": "Polygon",
        "coordinates": [
          [
            [
              72.5514,
              23.0125
            ],
            [
              72.5614,
              23.0125
            ],
            [
              72.5614,
              23.0225
            ],
            [
              72.5514,
              23.0225
            ],
            [
              72.5514,
              23.0125
            ]
          ]
        ]
      }
    },
    {
      "type": "Feature",
      "properties": {
        "ward_name": "Vatva",
        "city_name": "Ahmedabad",
        "ward_id": 7
      },
      "geometry": {
        "type": "Polygon",
        "coordinates": [
          [
            [
              72.56139999999999,
              23.0125
            ],
            [
              72.5714,
              23.0125
            ],
            [
              72.5714,
              23.0225
            ],
            [
              72.56139999999999,
              23.0225
            ],
            [
              72.56139999999999,
              23.0125
            ]
          ]
        ]
      }
    },
    {
      "type": "Feature",
      "properties": {
        "ward_name": "Chandkheda",
        "city_name": "Ahmedabad",
        "ward_id": 8
      },
      "geometry": {
        "type": "Polygon",
        "coordinates": [
          [
            [
              72.5714,
              23.0125
            ],
            [
              72.5814,
              23.0125
            ],
            [
              72.5814,
              23.0225
            ],
            [
              72.5714,
              23.0225
            ],
            [
              72.5714,
              23.0125
            ]
          ]
        ]
      }
    },
    {
      "type": "Feature",
      "properties": {
        "ward_name": "Sabarmati",
        "city_name": "Ahmedabad",
        "ward_id": 9
      },
      "geometry": {
        "type": "Polygon",
        "coordinates": [
          [
            [
              72.5814,
              23.0125
            ],
            [
              72.59140000000001,
              23.0125
            ],
            [
              72.59140000000001,
              23.0225
            ],
            [
              72.5814,
              23.0225
            ],
            [
              72.5814,
              23.0125
            ]
          ]
        ]
      }
    },
    {
      "type": "Feature",
      "properties": {
        "ward_name": "Bapunagar",
        "city_name": "Ahmedabad",
        "ward_id": 10
      },
      "geometry": {
        "type": "Polygon",
        "coordinates": [
          [
            [
              72.5914,
              23.0125
            ],
            [
              72.6014,
              23.0125
            ],
            [
              72.6014,
              23.0225
            ],
            [
              72.5914,
              23.0225
            ],
            [
              72.5914,
              23.0125
            ]
          ]
        ]
      }
    },
    {
      "type": "Feature",
      "properties": {
        "ward_name": "CTM",
        "city_name": "Ahmedabad",
        "ward_id": 11
      },
      "geometry": {
        "type": "Polygon",
        "coordinates": [
          [
            [
              72.5514,
              23.0225
            ],
            [
              72.5614,
              23.0225
            ],
            [
              72.5614,
              23.032500000000002
            ],
            [
              72.5514,
              23.032500000000002
            ],
            [
              72.5514,
              23.0225
            ]
          ]
        ]
      }
    },
    {
      "type": "Feature",
      "properties": {
        "ward_name": "Nikol",
        "city_name": "Ahmedabad",
        "ward_id": 12
      },
      "geometry": {
        "type": "Polygon",
        "coordinates": [
          [
            [
              72.56139999999999,
              23.0225
            ],
            [
              72.5714,
              23.0225
            ],
            [
              72.5714,
              23.032500000000002
            ],
            [
              72.56139999999999,
              23.032500000000002
            ],
            [
              72.56139999999999,
              23.0225
            ]
          ]
        ]
      }
    },
    {
      "type": "Feature",
      "properties": {
        "ward_name": "Odhav",
        "city_name": "Ahmedabad",
        "ward_id": 13
      },
      "geometry": {
        "type": "Polygon",
        "coordinates": [
          [
            [
              72.5714,
              23.0225
            ],
            [
              72.5814,
              23.0225
            ],
            [
              72.5814,
              23.032500000000002
            ],
            [
              72.5714,
              23.032500000000002
            ],
            [
              72.5714,
              23.0225
            ]
          ]
        ]
      }
    },
    {
      "type": "Feature",
      "properties": {
        "ward_name": "Rakhial",
        "city_name": "Ahmedabad",
        "ward_id": 14
      },
      "geometry": {
        "type": "Polygon",
        "coordinates": [
          [
            [
              72.5814,
              23.0225
            ],
            [
              72.59140000000001,
              23.0225
            ],
            [
              72.59140000000001,
              23.032500000000002
            ],
            [
              72.5814,
              23.032500000000002
            ],
            [
              72.5814,
              23.0225
            ]
          ]
        ]
      }
    },
    {
      "type": "Feature",
      "properties": {
        "ward_name": "Naranpura",
        "city_name": "Ahmedabad",
        "ward_id": 15
      },
      "geometry": {
        "type": "Polygon",
        "coordinates": [
          [
            [
              72.5914,
              23.0225
            ],
            [
              72.6014,
              23.0225
            ],
            [
              72.6014,
              23.032500000000002
            ],
            [
              72.5914,
              23.032500000000002
            ],
            [
              72.5914,
              23.0225
            ]
          ]
        ]
      }
    },
    {
      "type": "Feature",
      "properties": {
        "ward_name": "Gota",
        "city_name": "Ahmedabad",
        "ward_id": 16
      },
      "geometry": {
        "type": "Polygon",
        "coordinates": [
          [
            [
              72.5514,
              23.032500000000002
            ],
            [
              72.5614,
              23.032500000000002
            ],
            [
              72.5614,
              23.042500000000004
            ],
            [
              72.5514,
              23.042500000000004
            ],
            [
              72.5514,
              23.032500000000002
            ]
          ]
        ]
      }
    },
    {
      "type": "Feature",
      "properties": {
        "ward_name": "Amraiwadi",
        "city_name": "Ahmedabad",
        "ward_id": 17
      },
      "geometry": {
        "type": "Polygon",
        "coordinates": [
          [
            [
              72.56139999999999,
              23.032500000000002
            ],
            [
              72.5714,
              23.032500000000002
            ],
            [
              72.5714,
              23.042500000000004
            ],
            [
              72.56139999999999,
              23.042500000000004
            ],
            [
              72.56139999999999,
              23.032500000000002
            ]
          ]
        ]
      }
    },
    {
      "type": "Feature",
      "properties": {
        "ward_name": "Jodhpur",
        "city_name": "Ahmedabad",
        "ward_id": 18
      },
      "geometry": {
        "type": "Polygon",
        "coordinates": [
          [
            [
              72.5714,
              23.032500000000002
            ],
            [
              72.5814,
              23.032500000000002
            ],
            [
              72.5814,
              23.042500000000004
            ],
            [
              72.5714,
              23.042500000000004
            ],
            [
              72.5714,
              23.032500000000002
            ]
          ]
        ]
      }
    },
    {
      "type": "Feature",
      "properties": {
        "ward_name": "SG Highway",
        "city_name": "Ahmedabad",
        "ward_id": 19
      },
      "geometry": {
        "type": "Polygon",
        "coordinates": [
          [
            [
              72.5814,
              23.032500000000002
            ],
            [
              72.59140000000001,
              23.032500000000002
            ],
            [
              72.59140000000001,
              23.042500000000004
            ],
            [
              72.5814,
              23.042500000000004
            ],
            [
              72.5814,
              23.032500000000002
            ]
          ]
        ]
      }
    },
    {
      "type": "Feature",
      "properties": {
        "ward_name": "Bodakdev",
        "city_name": "Ahmedabad",
        "ward_id": 20
      },
      "geometry": {
        "type": "Polygon",
        "coordinates": [
          [
            [
              72.5914,
              23.032500000000002
            ],
            [
              72.6014,
              23.032500000000002
            ],
            [
              72.6014,
              23.042500000000004
            ],
            [
              72.5914,
              23.042500000000004
            ],
            [
              72.5914,
              23.032500000000002
            ]
          ]
        ]
      }
    }
  ]
}